{"type": "FeatureCollection", "features": [{"type": "Feature", "properties": {"kind": "estande", "cat": "expositor", "code": "K74", "name": "Ler Editorial"}, "geometry": {"type": "Polygon", "coordinates": [[[-46.6371625, -23.5155729], [-46.6371382, -23.5155745], [-46.6371432, -23.5156408], [-46.6371676, -23.5156392], [-46.6371625, -23.5155729]]]}}, {"type": "Feature", "properties": {"kind": "estande", "cat": "expositor", "code": "K76", "name": "Editora Globo"}, "geometry": {"type": "Polygon", "coordinates": [[[-46.6371382, -23.5155745], [-46.6371138, -23.515576], [-46.6371189, -23.5156423], [-46.6371432, -23.5156408], [-46.6371382, -23.5155745]]]}}, {"type": "Feature", "properties": {"kind": "estande", "cat": "expositor", "code": "K78", "name": "Depósito Cinemark"}, "geometry": {"type": "Polygon", "coordinates": [[[-46.6371138, -23.515576], [-46.6370895, -23.5155776], [-46.6370946, -23.5156439], [-46.6371189, -23.5156423], [-46.6371138, -23.515576]]]}}, {"type": "Feature", "properties": {"kind": "quadra", "id": "norte-1"}, "geometry": {"type": "Polygon", "coordinates": [[[-46.6371625, -23.5155729], [-46.6370895, -23.5155776], [-46.6370946, -23.5156439], [-46.6371676, -23.5156392], [-46.6371625, -23.5155729]]]}}, {"type": "Feature", "properties": {"kind": "estande", "cat": "expositor", "code": "K70", "name": "New Pop"}, "geometry": {"type": "Polygon", "coordinates": [[[-46.6370406, -23.5155807], [-46.636901, -23.5155897], [-46.636906, -23.515656], [-46.6370457, -23.515647], [-46.6370406, -23.5155807]]]}}, {"type": "Feature", "properties": {"kind": "quadra", "id": "norte-2"}, "geometry": {"type": "Polygon", "coordinates": [[[-46.6370406, -23.5155807], [-46.636901, -23.5155897], [-46.636906, -23.515656], [-46.6370457, -23.515647], [-46.6370406, -23.5155807]]]}}, {"type": "Feature", "properties": {"kind": "estande", "cat": "expositor", "code": "K66", "name": "Editora Euphoria"}, "geometry": {"type": "Polygon", "coordinates": [[[-46.6368521, -23.5155928], [-46.6368274, -23.5155944], [-46.6368325, -23.5156607], [-46.6368572, -23.5156591], [-46.6368521, -23.5155928]]]}}, {"type": "Feature", "properties": {"kind": "estande", "cat": "expositor", "code": "K68", "name": "Record"}, "geometry": {"type": "Polygon", "coordinates": [[[-46.6368274, -23.5155944], [-46.6368027, -23.515596], [-46.6368077, -23.5156623], [-46.6368325, -23.5156607], [-46.6368274, -23.5155944]]]}}, {"type": "Feature", "properties": {"kind": "quadra", "id": "norte-3"}, "geometry": {"type": "Polygon", "coordinates": [[[-46.6368521, -23.5155928], [-46.6368027, -23.515596], [-46.6368077, -23.5156623], [-46.6368572, -23.5156591], [-46.6368521, -23.5155928]]]}}, {"type": "Feature", "properties": {"kind": "estande", "cat": "expositor", "code": "K58", "name": "Fruto Proibido"}, "geometry": {"type": "Polygon", "coordinates": [[[-46.6367538, -23.5155992], [-46.6366788, -23.515604], [-46.6366839, -23.5156703], [-46.6367589, -23.5156655], [-46.6367538, -23.5155992]]]}}, {"type": "Feature", "properties": {"kind": "estande", "cat": "entidade", "code": "K54", "name": "Abdl"}, "geometry": {"type": "Polygon", "coordinates": [[[-46.6366788, -23.515604], [-46.6366417, -23.5156064], [-46.6366468, -23.5156727], [-46.6366839, -23.5156703], [-46.6366788, -23.515604]]]}}, {"type": "Feature", "properties": {"kind": "estande", "cat": "expositor", "code": "K56", "name": "Editora Europa"}, "geometry": {"type": "Polygon", "coordinates": [[[-46.6366417, -23.5156064], [-46.6366046, -23.5156087], [-46.6366096, -23.5156751], [-46.6366468, -23.5156727], [-46.6366417, -23.5156064]]]}}, {"type": "Feature", "properties": {"kind": "quadra", "id": "norte-4"}, "geometry": {"type": "Polygon", "coordinates": [[[-46.6367538, -23.5155992], [-46.6366046, -23.5156087], [-46.6366096, -23.5156751], [-46.6367589, -23.5156655], [-46.6367538, -23.5155992]]]}}, {"type": "Feature", "properties": {"kind": "estande", "cat": "expositor", "code": "K40", "name": "Editora Bezz"}, "geometry": {"type": "Polygon", "coordinates": [[[-46.6365557, -23.5156119], [-46.6365266, -23.5156138], [-46.6365317, -23.5156801], [-46.6365608, -23.5156782], [-46.6365557, -23.5156119]]]}}, {"type": "Feature", "properties": {"kind": "estande", "cat": "entidade", "code": "K42", "name": "Abigraf"}, "geometry": {"type": "Polygon", "coordinates": [[[-46.6365266, -23.5156138], [-46.6364975, -23.5156156], [-46.6365025, -23.5156819], [-46.6365317, -23.5156801], [-46.6365266, -23.5156138]]]}}, {"type": "Feature", "properties": {"kind": "quadra", "id": "norte-5"}, "geometry": {"type": "Polygon", "coordinates": [[[-46.6365557, -23.5156119], [-46.6364975, -23.5156156], [-46.6365025, -23.5156819], [-46.6365608, -23.5156782], [-46.6365557, -23.5156119]]]}}, {"type": "Feature", "properties": {"kind": "estande", "cat": "expositor", "code": "K30", "name": "Amigos Do Bem"}, "geometry": {"type": "Polygon", "coordinates": [[[-46.6364486, -23.5156188], [-46.6364099, -23.5156213], [-46.636415, -23.5156876], [-46.6364537, -23.5156851], [-46.6364486, -23.5156188]]]}}, {"type": "Feature", "properties": {"kind": "quadra", "id": "norte-6"}, "geometry": {"type": "Polygon", "coordinates": [[[-46.6364486, -23.5156188], [-46.6364099, -23.5156213], [-46.636415, -23.5156876], [-46.6364537, -23.5156851], [-46.6364486, -23.5156188]]]}}, {"type": "Feature", "properties": {"kind": "estande", "cat": "expositor", "code": "K28", "name": "Cabana Vermelha"}, "geometry": {"type": "Polygon", "coordinates": [[[-46.636361, -23.5156244], [-46.6363156, -23.5156273], [-46.6363207, -23.5156936], [-46.6363661, -23.5156907], [-46.636361, -23.5156244]]]}}, {"type": "Feature", "properties": {"kind": "quadra", "id": "norte-7"}, "geometry": {"type": "Polygon", "coordinates": [[[-46.636361, -23.5156244], [-46.6363156, -23.5156273], [-46.6363207, -23.5156936], [-46.6363661, -23.5156907], [-46.636361, -23.5156244]]]}}, {"type": "Feature", "properties": {"kind": "rua", "name": "RUA K"}, "geometry": {"type": "Polygon", "coordinates": [[[-46.6371685, -23.5156517], [-46.6353711, -23.5157673], [-46.635374, -23.5158049], [-46.6371714, -23.5156894], [-46.6371685, -23.5156517]]]}}, {"type": "Feature", "properties": {"kind": "estande", "cat": "expositor", "code": "J86", "name": "Maquinaria Sankto Editorial"}, "geometry": {"type": "Polygon", "coordinates": [[[-46.6371723, -23.515701], [-46.6370937, -23.5157061], [-46.6370988, -23.5157724], [-46.6371774, -23.5157673], [-46.6371723, -23.515701]]]}}, {"type": "Feature", "properties": {"kind": "estande", "cat": "expositor", "code": "K77", "name": "Book Outlet"}, "geometry": {"type": "Polygon", "coordinates": [[[-46.6370937, -23.5157061], [-46.6369489, -23.5157154], [-46.6369514, -23.5157485], [-46.6370963, -23.5157392], [-46.6370937, -23.5157061]]]}}, {"type": "Feature", "properties": {"kind": "estande", "cat": "expositor", "code": "J80", "name": "Sebo Do Messias"}, "geometry": {"type": "Polygon", "coordinates": [[[-46.6370963, -23.5157392], [-46.6369514, -23.5157485], [-46.636954, -23.5157817], [-46.6370988, -23.5157724], [-46.6370963, -23.5157392]]]}}, {"type": "Feature", "properties": {"kind": "estande", "cat": "expositor", "code": "J76", "name": "Autores Independentes Do Brasil"}, "geometry": {"type": "Polygon", "coordinates": [[[-46.6369514, -23.5157485], [-46.636879, -23.5157532], [-46.6368815, -23.5157864], [-46.636954, -23.5157817], [-46.6369514, -23.5157485]]]}}, {"type": "Feature", "properties": {"kind": "estande", "cat": "expositor", "code": "K75", "name": "Guarderia Souvenirs"}, "geometry": {"type": "Polygon", "coordinates": [[[-46.6368765, -23.51572], [-46.6368359, -23.5157226], [-46.6368384, -23.5157558], [-46.636879, -23.5157532], [-46.6368765, -23.51572]]]}}, {"type": "Feature", "properties": {"kind": "estande", "cat": "expositor", "code": "J74", "name": "Lvm Editora"}, "geometry": {"type": "Polygon", "coordinates": [[[-46.636879, -23.5157532], [-46.6368384, -23.5157558], [-46.636841, -23.515789], [-46.6368815, -23.5157864], [-46.636879, -23.5157532]]]}}, {"type": "Feature", "properties": {"kind": "estande", "cat": "expositor", "code": "J70", "name": "Editora Vida"}, "geometry": {"type": "Polygon", "coordinates": [[[-46.6368359, -23.5157226], [-46.6367356, -23.5157291], [-46.6367407, -23.5157954], [-46.636841, -23.515789], [-46.6368359, -23.5157226]]]}}, {"type": "Feature", "properties": {"kind": "quadra", "id": "KJ-1"}, "geometry": {"type": "Polygon", "coordinates": [[[-46.6371723, -23.515701], [-46.6367356, -23.5157291], [-46.6367407, -23.5157954], [-46.6371774, -23.5157673], [-46.6371723, -23.515701]]]}}, {"type": "Feature", "properties": {"kind": "estande", "cat": "expositor", "code": "J68", "name": "Chave Mestra"}, "geometry": {"type": "Polygon", "coordinates": [[[-46.6366868, -23.5157322], [-46.6365851, -23.5157388], [-46.6365902, -23.5158051], [-46.6366918, -23.5157985], [-46.6366868, -23.5157322]]]}}, {"type": "Feature", "properties": {"kind": "estande", "cat": "expositor", "code": "K67", "name": "Gift Box"}, "geometry": {"type": "Polygon", "coordinates": [[[-46.6365851, -23.5157388], [-46.6365412, -23.5157416], [-46.6365437, -23.5157747], [-46.6365877, -23.5157719], [-46.6365851, -23.5157388]]]}}, {"type": "Feature", "properties": {"kind": "estande", "cat": "expositor", "code": "J66", "name": "Lura Editorial"}, "geometry": {"type": "Polygon", "coordinates": [[[-46.6365877, -23.5157719], [-46.6365437, -23.5157747], [-46.6365462, -23.5158079], [-46.6365902, -23.5158051], [-46.6365877, -23.5157719]]]}}, {"type": "Feature", "properties": {"kind": "estande", "cat": "expositor", "code": "J60", "name": "Grupo Editorial Pensamento"}, "geometry": {"type": "Polygon", "coordinates": [[[-46.6365412, -23.5157416], [-46.636434, -23.5157485], [-46.636439, -23.5158148], [-46.6365462, -23.5158079], [-46.6365412, -23.5157416]]]}}, {"type": "Feature", "properties": {"kind": "quadra", "id": "KJ-2"}, "geometry": {"type": "Polygon", "coordinates": [[[-46.6366868, -23.5157322], [-46.636434, -23.5157485], [-46.636439, -23.5158148], [-46.6366918, -23.5157985], [-46.6366868, -23.5157322]]]}}, {"type": "Feature", "properties": {"kind": "estande", "cat": "expositor", "code": "J58", "name": "Editora Gente"}, "geometry": {"type": "Polygon", "coordinates": [[[-46.6363851, -23.5157516], [-46.6362706, -23.515759], [-46.6362756, -23.5158253], [-46.6363902, -23.5158179], [-46.6363851, -23.5157516]]]}}, {"type": "Feature", "properties": {"kind": "estande", "cat": "expositor", "code": "J52", "name": "Editora Viseu"}, "geometry": {"type": "Polygon", "coordinates": [[[-46.6362731, -23.5157921], [-46.6362129, -23.515796], [-46.6362154, -23.5158292], [-46.6362756, -23.5158253], [-46.6362731, -23.5157921]]]}}, {"type": "Feature", "properties": {"kind": "estande", "cat": "expositor", "code": "K51", "name": "Estante Virtual"}, "geometry": {"type": "Polygon", "coordinates": [[[-46.6362706, -23.515759], [-46.6362104, -23.5157629], [-46.6362129, -23.515796], [-46.6362731, -23.5157921], [-46.6362706, -23.515759]]]}}, {"type": "Feature", "properties": {"kind": "estande", "cat": "expositor", "code": "K45", "name": "Editora Patuá"}, "geometry": {"type": "Polygon", "coordinates": [[[-46.6362104, -23.5157629], [-46.6361141, -23.515769], [-46.6361166, -23.5158022], [-46.6362129, -23.515796], [-46.6362104, -23.5157629]]]}}, {"type": "Feature", "properties": {"kind": "estande", "cat": "expositor", "code": "J48", "name": "Editora Ave Maria"}, "geometry": {"type": "Polygon", "coordinates": [[[-46.6362129, -23.515796], [-46.6361166, -23.5158022], [-46.6361192, -23.5158353], [-46.6362154, -23.5158292], [-46.6362129, -23.515796]]]}}, {"type": "Feature", "properties": {"kind": "estande", "cat": "expositor", "code": "J44", "name": "Editora Labrador"}, "geometry": {"type": "Polygon", "coordinates": [[[-46.6361166, -23.5158022], [-46.6360429, -23.5158069], [-46.6360455, -23.5158401], [-46.6361192, -23.5158353], [-46.6361166, -23.5158022]]]}}, {"type": "Feature", "properties": {"kind": "estande", "cat": "expositor", "code": "K43", "name": "Editora Identidade"}, "geometry": {"type": "Polygon", "coordinates": [[[-46.6361141, -23.515769], [-46.6360404, -23.5157738], [-46.6360429, -23.5158069], [-46.6361166, -23.5158022], [-46.6361141, -23.515769]]]}}, {"type": "Feature", "properties": {"kind": "estande", "cat": "expositor", "code": "J40", "name": "Aquarela Livros"}, "geometry": {"type": "Polygon", "coordinates": [[[-46.6360404, -23.5157738], [-46.6359656, -23.5157786], [-46.6359707, -23.5158449], [-46.6360455, -23.5158401], [-46.6360404, -23.5157738]]]}}, {"type": "Feature", "properties": {"kind": "quadra", "id": "KJ-3"}, "geometry": {"type": "Polygon", "coordinates": [[[-46.6363851, -23.5157516], [-46.6359656, -23.5157786], [-46.6359707, -23.5158449], [-46.6363902, -23.5158179], [-46.6363851, -23.5157516]]]}}, {"type": "Feature", "properties": {"kind": "estande", "cat": "expositor", "code": "J38", "name": "Secretaria Municipal Da Cultura"}, "geometry": {"type": "Polygon", "coordinates": [[[-46.6359168, -23.5157817], [-46.6358426, -23.5157865], [-46.6358477, -23.5158528], [-46.6359219, -23.515848], [-46.6359168, -23.5157817]]]}}, {"type": "Feature", "properties": {"kind": "estande", "cat": "expositor", "code": "K37", "name": "Litteris Editora"}, "geometry": {"type": "Polygon", "coordinates": [[[-46.6358426, -23.5157865], [-46.6357855, -23.5157902], [-46.6357881, -23.5158233], [-46.6358451, -23.5158196], [-46.6358426, -23.5157865]]]}}, {"type": "Feature", "properties": {"kind": "estande", "cat": "expositor", "code": "J36", "name": "Telos Editora"}, "geometry": {"type": "Polygon", "coordinates": [[[-46.6358451, -23.5158196], [-46.6357881, -23.5158233], [-46.6357906, -23.5158565], [-46.6358477, -23.5158528], [-46.6358451, -23.5158196]]]}}, {"type": "Feature", "properties": {"kind": "estande", "cat": "expositor", "code": "K35", "name": "Editora Articule"}, "geometry": {"type": "Polygon", "coordinates": [[[-46.6357855, -23.5157902], [-46.6357239, -23.5157941], [-46.6357264, -23.5158273], [-46.6357881, -23.5158233], [-46.6357855, -23.5157902]]]}}, {"type": "Feature", "properties": {"kind": "estande", "cat": "expositor", "code": "J32", "name": "Scortecci"}, "geometry": {"type": "Polygon", "coordinates": [[[-46.6357881, -23.5158233], [-46.6357264, -23.5158273], [-46.6357289, -23.5158604], [-46.6357906, -23.5158565], [-46.6357881, -23.5158233]]]}}, {"type": "Feature", "properties": {"kind": "estande", "cat": "expositor", "code": "K33", "name": "Sunbee"}, "geometry": {"type": "Polygon", "coordinates": [[[-46.6357239, -23.5157941], [-46.635693, -23.5157961], [-46.6356955, -23.5158293], [-46.6357264, -23.5158273], [-46.6357239, -23.5157941]]]}}, {"type": "Feature", "properties": {"kind": "estande", "cat": "expositor", "code": "J30", "name": "Editora Unicorn"}, "geometry": {"type": "Polygon", "coordinates": [[[-46.635693, -23.5157961], [-46.6356247, -23.5158005], [-46.6356297, -23.5158668], [-46.6356981, -23.5158624], [-46.635693, -23.5157961]]]}}, {"type": "Feature", "properties": {"kind": "quadra", "id": "KJ-4"}, "geometry": {"type": "Polygon", "coordinates": [[[-46.6359168, -23.5157817], [-46.6356247, -23.5158005], [-46.6356297, -23.5158668], [-46.6359219, -23.515848], [-46.6359168, -23.5157817]]]}}, {"type": "Feature", "properties": {"kind": "estande", "cat": "expositor", "code": "J28", "name": "Fábrica Do Livro"}, "geometry": {"type": "Polygon", "coordinates": [[[-46.6355758, -23.5158036], [-46.6354797, -23.5158098], [-46.6354822, -23.515843], [-46.6355783, -23.5158368], [-46.6355758, -23.5158036]]]}}, {"type": "Feature", "properties": {"kind": "estande", "cat": "expositor", "code": "J26", "name": "Lelume"}, "geometry": {"type": "Polygon", "coordinates": [[[-46.6354797, -23.5158098], [-46.6354396, -23.5158124], [-46.6354421, -23.5158455], [-46.6354822, -23.515843], [-46.6354797, -23.5158098]]]}}, {"type": "Feature", "properties": {"kind": "estande", "cat": "expositor", "code": "J20", "name": "Bibliex"}, "geometry": {"type": "Polygon", "coordinates": [[[-46.6354396, -23.5158124], [-46.6353749, -23.5158165], [-46.6353774, -23.5158497], [-46.6354421, -23.5158455], [-46.6354396, -23.5158124]]]}}, {"type": "Feature", "properties": {"kind": "quadra", "id": "KJ-5"}, "geometry": {"type": "Polygon", "coordinates": [[[-46.6355758, -23.5158036], [-46.6353749, -23.5158165], [-46.63538, -23.5158829], [-46.6355809, -23.5158699], [-46.6355758, -23.5158036]]]}}, {"type": "Feature", "properties": {"kind": "rua", "name": "RUA J"}, "geometry": {"type": "Polygon", "coordinates": [[[-46.6371782, -23.515779], [-46.6357794, -23.5158689], [-46.6357823, -23.5159065], [-46.6371811, -23.5158166], [-46.6371782, -23.515779]]]}}, {"type": "Feature", "properties": {"kind": "estande", "cat": "expositor", "code": "H86", "name": "Book One"}, "geometry": {"type": "Polygon", "coordinates": [[[-46.637182, -23.5158283], [-46.6371066, -23.5158331], [-46.6371116, -23.5158994], [-46.6371871, -23.5158946], [-46.637182, -23.5158283]]]}}, {"type": "Feature", "properties": {"kind": "estande", "cat": "expositor", "code": "J81", "name": "Gráfica Viena"}, "geometry": {"type": "Polygon", "coordinates": [[[-46.6371066, -23.5158331], [-46.6370346, -23.5158378], [-46.6370372, -23.5158709], [-46.6371091, -23.5158663], [-46.6371066, -23.5158331]]]}}, {"type": "Feature", "properties": {"kind": "estande", "cat": "expositor", "code": "H80", "name": "Urutau"}, "geometry": {"type": "Polygon", "coordinates": [[[-46.6371091, -23.5158663], [-46.6370372, -23.5158709], [-46.6370397, -23.5159041], [-46.6371116, -23.5158994], [-46.6371091, -23.5158663]]]}}, {"type": "Feature", "properties": {"kind": "estande", "cat": "expositor", "code": "J79", "name": "Explosão Criativa"}, "geometry": {"type": "Polygon", "coordinates": [[[-46.6370346, -23.5158378], [-46.6369979, -23.5158401], [-46.6370004, -23.5158733], [-46.6370372, -23.5158709], [-46.6370346, -23.5158378]]]}}, {"type": "Feature", "properties": {"kind": "estande", "cat": "expositor", "code": "H78", "name": "Universo Paralelo"}, "geometry": {"type": "Polygon", "coordinates": [[[-46.6370372, -23.5158709], [-46.6370004, -23.5158733], [-46.637003, -23.5159064], [-46.6370397, -23.5159041], [-46.6370372, -23.5158709]]]}}, {"type": "Feature", "properties": {"kind": "estande", "cat": "expositor", "code": "J75", "name": "Matrix Editora"}, "geometry": {"type": "Polygon", "coordinates": [[[-46.6369979, -23.5158401], [-46.6369383, -23.5158439], [-46.6369408, -23.5158771], [-46.6370004, -23.5158733], [-46.6369979, -23.5158401]]]}}, {"type": "Feature", "properties": {"kind": "estande", "cat": "expositor", "code": "H76", "name": "Pallas Editora"}, "geometry": {"type": "Polygon", "coordinates": [[[-46.6370004, -23.5158733], [-46.6369408, -23.5158771], [-46.6369434, -23.5159103], [-46.637003, -23.5159064], [-46.6370004, -23.5158733]]]}}, {"type": "Feature", "properties": {"kind": "estande", "cat": "expositor", "code": "H70", "name": "Buzz Editora"}, "geometry": {"type": "Polygon", "coordinates": [[[-46.6369383, -23.5158439], [-46.6368177, -23.5158517], [-46.6368228, -23.515918], [-46.6369434, -23.5159103], [-46.6369383, -23.5158439]]]}}, {"type": "Feature", "properties": {"kind": "quadra", "id": "JH-1"}, "geometry": {"type": "Polygon", "coordinates": [[[-46.637182, -23.5158283], [-46.6368177, -23.5158517], [-46.6368228, -23.515918], [-46.6371871, -23.5158946], [-46.637182, -23.5158283]]]}}, {"type": "Feature", "properties": {"kind": "estande", "cat": "expositor", "code": "H60", "name": "Universo Dos Livros"}, "geometry": {"type": "Polygon", "coordinates": [[[-46.6367688, -23.5158548], [-46.6365162, -23.5158711], [-46.6365213, -23.5159374], [-46.6367739, -23.5159211], [-46.6367688, -23.5158548]]]}}, {"type": "Feature", "properties": {"kind": "quadra", "id": "JH-2"}, "geometry": {"type": "Polygon", "coordinates": [[[-46.6367688, -23.5158548], [-46.6365162, -23.5158711], [-46.6365213, -23.5159374], [-46.6367739, -23.5159211], [-46.6367688, -23.5158548]]]}}, {"type": "Feature", "properties": {"kind": "estande", "cat": "expositor", "code": "H58", "name": "Editora Velos"}, "geometry": {"type": "Polygon", "coordinates": [[[-46.6364673, -23.5158742], [-46.6363168, -23.5158839], [-46.6363219, -23.5159502], [-46.6364724, -23.5159405], [-46.6364673, -23.5158742]]]}}, {"type": "Feature", "properties": {"kind": "estande", "cat": "expositor", "code": "H50", "name": "Editora Literatura Clássica"}, "geometry": {"type": "Polygon", "coordinates": [[[-46.6363168, -23.5158839], [-46.6362722, -23.5158868], [-46.6362772, -23.5159531], [-46.6363219, -23.5159502], [-46.6363168, -23.5158839]]]}}, {"type": "Feature", "properties": {"kind": "estande", "cat": "expositor", "code": "H48", "name": "Tertúlia"}, "geometry": {"type": "Polygon", "coordinates": [[[-46.6362722, -23.5158868], [-46.6362253, -23.5158898], [-46.6362303, -23.5159561], [-46.6362772, -23.5159531], [-46.6362722, -23.5158868]]]}}, {"type": "Feature", "properties": {"kind": "estande", "cat": "expositor", "code": "H40", "name": "Madras"}, "geometry": {"type": "Polygon", "coordinates": [[[-46.6362253, -23.5158898], [-46.6360768, -23.5158993], [-46.6360819, -23.5159656], [-46.6362303, -23.5159561], [-46.6362253, -23.5158898]]]}}, {"type": "Feature", "properties": {"kind": "quadra", "id": "JH-3"}, "geometry": {"type": "Polygon", "coordinates": [[[-46.6364673, -23.5158742], [-46.6360768, -23.5158993], [-46.6360819, -23.5159656], [-46.6364724, -23.5159405], [-46.6364673, -23.5158742]]]}}, {"type": "Feature", "properties": {"kind": "estande", "cat": "expositor", "code": "H38", "name": "Fnde"}, "geometry": {"type": "Polygon", "coordinates": [[[-46.636028, -23.5159024], [-46.6359196, -23.5159094], [-46.6359246, -23.5159757], [-46.636033, -23.5159688], [-46.636028, -23.5159024]]]}}, {"type": "Feature", "properties": {"kind": "estande", "cat": "expositor", "code": "J34", "name": "Editora Ardane"}, "geometry": {"type": "Polygon", "coordinates": [[[-46.6359196, -23.5159094], [-46.6358288, -23.5159152], [-46.6358313, -23.5159484], [-46.6359221, -23.5159426], [-46.6359196, -23.5159094]]]}}, {"type": "Feature", "properties": {"kind": "estande", "cat": "expositor", "code": "H34", "name": "Abeu"}, "geometry": {"type": "Polygon", "coordinates": [[[-46.6359221, -23.5159426], [-46.6358313, -23.5159484], [-46.6358339, -23.5159816], [-46.6359246, -23.5159757], [-46.6359221, -23.5159426]]]}}, {"type": "Feature", "properties": {"kind": "estande", "cat": "expositor", "code": "J33", "name": "Aberst"}, "geometry": {"type": "Polygon", "coordinates": [[[-46.6358288, -23.5159152], [-46.6357831, -23.5159182], [-46.6357857, -23.5159513], [-46.6358313, -23.5159484], [-46.6358288, -23.5159152]]]}}, {"type": "Feature", "properties": {"kind": "quadra", "id": "JH-4"}, "geometry": {"type": "Polygon", "coordinates": [[[-46.636028, -23.5159024], [-46.6357831, -23.5159182], [-46.6357882, -23.5159845], [-46.636033, -23.5159688], [-46.636028, -23.5159024]]]}}, {"type": "Feature", "properties": {"kind": "rua", "name": "RUA H"}, "geometry": {"type": "Polygon", "coordinates": [[[-46.637188, -23.5159062], [-46.635254, -23.5160305], [-46.6352569, -23.5160682], [-46.6371909, -23.5159439], [-46.637188, -23.5159062]]]}}, {"type": "Feature", "properties": {"kind": "estande", "cat": "expositor", "code": "BK02", "name": "Bike Pé Da Letra"}, "geometry": {"type": "Polygon", "coordinates": [[[-46.6371917, -23.5159555], [-46.6371695, -23.515957], [-46.637172, -23.5159901], [-46.6371943, -23.5159887], [-46.6371917, -23.5159555]]]}}, {"type": "Feature", "properties": {"kind": "quadra", "id": "HG-1"}, "geometry": {"type": "Polygon", "coordinates": [[[-46.6371917, -23.5159555], [-46.6371695, -23.515957], [-46.6371745, -23.5160233], [-46.6371968, -23.5160218], [-46.6371917, -23.5159555]]]}}, {"type": "Feature", "properties": {"kind": "estande", "cat": "expositor", "code": "G88", "name": "Senado Federal"}, "geometry": {"type": "Polygon", "coordinates": [[[-46.6371206, -23.5159601], [-46.6370294, -23.515966], [-46.6370345, -23.5160323], [-46.6371257, -23.5160264], [-46.6371206, -23.5159601]]]}}, {"type": "Feature", "properties": {"kind": "estande", "cat": "expositor", "code": "G84", "name": "Legião Nerd"}, "geometry": {"type": "Polygon", "coordinates": [[[-46.637032, -23.5159991], [-46.6369576, -23.5160039], [-46.6369601, -23.5160371], [-46.6370345, -23.5160323], [-46.637032, -23.5159991]]]}}, {"type": "Feature", "properties": {"kind": "estande", "cat": "expositor", "code": "H87", "name": "Lendari"}, "geometry": {"type": "Polygon", "coordinates": [[[-46.6370294, -23.515966], [-46.636955, -23.5159707], [-46.6369576, -23.5160039], [-46.637032, -23.5159991], [-46.6370294, -23.515966]]]}}, {"type": "Feature", "properties": {"kind": "estande", "cat": "expositor", "code": "H85", "name": "Crush Literário"}, "geometry": {"type": "Polygon", "coordinates": [[[-46.636955, -23.5159707], [-46.6369105, -23.5159736], [-46.636913, -23.5160068], [-46.6369576, -23.5160039], [-46.636955, -23.5159707]]]}}, {"type": "Feature", "properties": {"kind": "estande", "cat": "expositor", "code": "G82", "name": "Piovesan"}, "geometry": {"type": "Polygon", "coordinates": [[[-46.636913, -23.5160068], [-46.6368824, -23.5160087], [-46.636885, -23.5160419], [-46.6369156, -23.5160399], [-46.636913, -23.5160068]]]}}, {"type": "Feature", "properties": {"kind": "estande", "cat": "expositor", "code": "H83", "name": "Nerd Ducks"}, "geometry": {"type": "Polygon", "coordinates": [[[-46.6369105, -23.5159736], [-46.6368799, -23.5159756], [-46.6368824, -23.5160087], [-46.636913, -23.5160068], [-46.6369105, -23.5159736]]]}}, {"type": "Feature", "properties": {"kind": "estande", "cat": "expositor", "code": "G80", "name": "Escreva Garota"}, "geometry": {"type": "Polygon", "coordinates": [[[-46.6368799, -23.5159756], [-46.6368354, -23.5159784], [-46.6368405, -23.5160447], [-46.636885, -23.5160419], [-46.6368799, -23.5159756]]]}}, {"type": "Feature", "properties": {"kind": "estande", "cat": "expositor", "code": "G76", "name": "Barca"}, "geometry": {"type": "Polygon", "coordinates": [[[-46.6368354, -23.5159784], [-46.63676, -23.5159833], [-46.6367651, -23.5160496], [-46.6368405, -23.5160447], [-46.6368354, -23.5159784]]]}}, {"type": "Feature", "properties": {"kind": "estande", "cat": "expositor", "code": "G70", "name": "Citadel"}, "geometry": {"type": "Polygon", "coordinates": [[[-46.63676, -23.5159833], [-46.6366096, -23.5159929], [-46.6366146, -23.5160593], [-46.6367651, -23.5160496], [-46.63676, -23.5159833]]]}}, {"type": "Feature", "properties": {"kind": "quadra", "id": "HG-2"}, "geometry": {"type": "Polygon", "coordinates": [[[-46.6371206, -23.5159601], [-46.6366096, -23.5159929], [-46.6366146, -23.5160593], [-46.6371257, -23.5160264], [-46.6371206, -23.5159601]]]}}, {"type": "Feature", "properties": {"kind": "estande", "cat": "expositor", "code": "G68", "name": "Promolivros"}, "geometry": {"type": "Polygon", "coordinates": [[[-46.6365607, -23.5159961], [-46.6364591, -23.5160026], [-46.6364641, -23.5160689], [-46.6365658, -23.5160624], [-46.6365607, -23.5159961]]]}}, {"type": "Feature", "properties": {"kind": "estande", "cat": "patrocinador", "code": "G60", "name": "Claro"}, "geometry": {"type": "Polygon", "coordinates": [[[-46.6364591, -23.5160026], [-46.6363238, -23.5160113], [-46.6363289, -23.5160776], [-46.6364641, -23.5160689], [-46.6364591, -23.5160026]]]}}, {"type": "Feature", "properties": {"kind": "quadra", "id": "HG-3"}, "geometry": {"type": "Polygon", "coordinates": [[[-46.6365607, -23.5159961], [-46.6363238, -23.5160113], [-46.6363289, -23.5160776], [-46.6365658, -23.5160624], [-46.6365607, -23.5159961]]]}}, {"type": "Feature", "properties": {"kind": "estande", "cat": "expositor", "code": "G52", "name": "Ases Da Literatura"}, "geometry": {"type": "Polygon", "coordinates": [[[-46.636275, -23.5160144], [-46.6362409, -23.5160166], [-46.6362459, -23.5160829], [-46.63628, -23.5160808], [-46.636275, -23.5160144]]]}}, {"type": "Feature", "properties": {"kind": "estande", "cat": "expositor", "code": "G50", "name": "Vr Editora"}, "geometry": {"type": "Polygon", "coordinates": [[[-46.6362409, -23.5160166], [-46.6361455, -23.5160228], [-46.6361505, -23.5160891], [-46.6362459, -23.5160829], [-46.6362409, -23.5160166]]]}}, {"type": "Feature", "properties": {"kind": "estande", "cat": "expositor", "code": "G40", "name": "Editora Planeta"}, "geometry": {"type": "Polygon", "coordinates": [[[-46.6361455, -23.5160228], [-46.6359597, -23.5160347], [-46.6359648, -23.516101], [-46.6361505, -23.5160891], [-46.6361455, -23.5160228]]]}}, {"type": "Feature", "properties": {"kind": "quadra", "id": "HG-4"}, "geometry": {"type": "Polygon", "coordinates": [[[-46.636275, -23.5160144], [-46.6359597, -23.5160347], [-46.6359648, -23.516101], [-46.63628, -23.5160808], [-46.636275, -23.5160144]]]}}, {"type": "Feature", "properties": {"kind": "estande", "cat": "patrocinador", "code": "G38", "name": "Mercado Livre"}, "geometry": {"type": "Polygon", "coordinates": [[[-46.6359108, -23.5160378], [-46.6358226, -23.5160435], [-46.6358276, -23.5161098], [-46.6359159, -23.5161042], [-46.6359108, -23.5160378]]]}}, {"type": "Feature", "properties": {"kind": "estande", "cat": "expositor", "code": "G36", "name": "Aleph"}, "geometry": {"type": "Polygon", "coordinates": [[[-46.6358226, -23.5160435], [-46.6357623, -23.5160474], [-46.6357674, -23.5161137], [-46.6358276, -23.5161098], [-46.6358226, -23.5160435]]]}}, {"type": "Feature", "properties": {"kind": "estande", "cat": "expositor", "code": "G30", "name": "Editora Vozes"}, "geometry": {"type": "Polygon", "coordinates": [[[-46.6357623, -23.5160474], [-46.6356476, -23.5160548], [-46.6356527, -23.5161211], [-46.6357674, -23.5161137], [-46.6357623, -23.5160474]]]}}, {"type": "Feature", "properties": {"kind": "quadra", "id": "HG-5"}, "geometry": {"type": "Polygon", "coordinates": [[[-46.6359108, -23.5160378], [-46.6356476, -23.5160548], [-46.6356527, -23.5161211], [-46.6359159, -23.5161042], [-46.6359108, -23.5160378]]]}}, {"type": "Feature", "properties": {"kind": "estande", "cat": "expositor", "code": "G28", "name": "Edson Sousa Livros"}, "geometry": {"type": "Polygon", "coordinates": [[[-46.6355988, -23.5160579], [-46.6355084, -23.5160637], [-46.6355135, -23.51613], [-46.6356039, -23.5161242], [-46.6355988, -23.5160579]]]}}, {"type": "Feature", "properties": {"kind": "estande", "cat": "expositor", "code": "H25", "name": "Autografia Editora"}, "geometry": {"type": "Polygon", "coordinates": [[[-46.6355084, -23.5160637], [-46.6354451, -23.5160678], [-46.6354476, -23.5161009], [-46.6355109, -23.5160969], [-46.6355084, -23.5160637]]]}}, {"type": "Feature", "properties": {"kind": "estande", "cat": "expositor", "code": "G26", "name": "Editora Cortez"}, "geometry": {"type": "Polygon", "coordinates": [[[-46.6355109, -23.5160969], [-46.6354476, -23.5161009], [-46.6354501, -23.5161341], [-46.6355135, -23.51613], [-46.6355109, -23.5160969]]]}}, {"type": "Feature", "properties": {"kind": "estande", "cat": "expositor", "code": "G20", "name": "Shopping Dos Livros"}, "geometry": {"type": "Polygon", "coordinates": [[[-46.6354451, -23.5160678], [-46.6353628, -23.5160731], [-46.6353678, -23.5161394], [-46.6354501, -23.5161341], [-46.6354451, -23.5160678]]]}}, {"type": "Feature", "properties": {"kind": "quadra", "id": "HG-6"}, "geometry": {"type": "Polygon", "coordinates": [[[-46.6355988, -23.5160579], [-46.6353628, -23.5160731], [-46.6353678, -23.5161394], [-46.6356039, -23.5161242], [-46.6355988, -23.5160579]]]}}, {"type": "Feature", "properties": {"kind": "estande", "cat": "expositor", "code": "G12", "name": "Cinemark"}, "geometry": {"type": "Polygon", "coordinates": [[[-46.6353164, -23.5161094], [-46.6352603, -23.516113], [-46.6352629, -23.5161461], [-46.635319, -23.5161425], [-46.6353164, -23.5161094]]]}}, {"type": "Feature", "properties": {"kind": "quadra", "id": "HG-7"}, "geometry": {"type": "Polygon", "coordinates": [[[-46.6353139, -23.5160762], [-46.6352578, -23.5160798], [-46.6352629, -23.5161461], [-46.635319, -23.5161425], [-46.6353139, -23.5160762]]]}}, {"type": "Feature", "properties": {"kind": "rua", "name": "RUA G"}, "geometry": {"type": "Polygon", "coordinates": [[[-46.6371977, -23.5160335], [-46.63516, -23.5161644], [-46.6351629, -23.5162021], [-46.6372006, -23.5160711], [-46.6371977, -23.5160335]]]}}, {"type": "Feature", "properties": {"kind": "estande", "cat": "expositor", "code": "F88", "name": "Wmf Martins Fontes"}, "geometry": {"type": "Polygon", "coordinates": [[[-46.6372015, -23.5160828], [-46.6370874, -23.5160901], [-46.6370925, -23.5161564], [-46.6372065, -23.5161491], [-46.6372015, -23.5160828]]]}}, {"type": "Feature", "properties": {"kind": "estande", "cat": "expositor", "code": "G81", "name": "Pedrazul Editora"}, "geometry": {"type": "Polygon", "coordinates": [[[-46.6370874, -23.5160901], [-46.6370207, -23.5160944], [-46.6370232, -23.5161276], [-46.63709, -23.5161233], [-46.6370874, -23.5160901]]]}}, {"type": "Feature", "properties": {"kind": "estande", "cat": "expositor", "code": "F82", "name": "Caixa De Quadrinhos"}, "geometry": {"type": "Polygon", "coordinates": [[[-46.63709, -23.5161233], [-46.6370232, -23.5161276], [-46.6370257, -23.5161607], [-46.6370925, -23.5161564], [-46.63709, -23.5161233]]]}}, {"type": "Feature", "properties": {"kind": "estande", "cat": "expositor", "code": "F80", "name": "Seicho-No-Ie"}, "geometry": {"type": "Polygon", "coordinates": [[[-46.6370207, -23.5160944], [-46.6369686, -23.5160977], [-46.6369737, -23.5161641], [-46.6370257, -23.5161607], [-46.6370207, -23.5160944]]]}}, {"type": "Feature", "properties": {"kind": "estande", "cat": "expositor", "code": "F76", "name": "Catapulta"}, "geometry": {"type": "Polygon", "coordinates": [[[-46.6369686, -23.5160977], [-46.6368854, -23.5161031], [-46.6368905, -23.5161694], [-46.6369737, -23.5161641], [-46.6369686, -23.5160977]]]}}, {"type": "Feature", "properties": {"kind": "estande", "cat": "expositor", "code": "F70", "name": "Rocco"}, "geometry": {"type": "Polygon", "coordinates": [[[-46.6368854, -23.5161031], [-46.636735, -23.5161128], [-46.6367401, -23.5161791], [-46.6368905, -23.5161694], [-46.6368854, -23.5161031]]]}}, {"type": "Feature", "properties": {"kind": "quadra", "id": "GF-1"}, "geometry": {"type": "Polygon", "coordinates": [[[-46.6372015, -23.5160828], [-46.636735, -23.5161128], [-46.6367401, -23.5161791], [-46.6372065, -23.5161491], [-46.6372015, -23.5160828]]]}}, {"type": "Feature", "properties": {"kind": "estande", "cat": "expositor", "code": "F60", "name": "Grupo Editorial Record"}, "geometry": {"type": "Polygon", "coordinates": [[[-46.6366862, -23.5161159], [-46.6364335, -23.5161321], [-46.6364386, -23.5161984], [-46.6366912, -23.5161822], [-46.6366862, -23.5161159]]]}}, {"type": "Feature", "properties": {"kind": "quadra", "id": "GF-2"}, "geometry": {"type": "Polygon", "coordinates": [[[-46.6366862, -23.5161159], [-46.6364335, -23.5161321], [-46.6364386, -23.5161984], [-46.6366912, -23.5161822], [-46.6366862, -23.5161159]]]}}, {"type": "Feature", "properties": {"kind": "estande", "cat": "expositor", "code": "F58", "name": "Panini"}, "geometry": {"type": "Polygon", "coordinates": [[[-46.6363847, -23.5161353], [-46.6360871, -23.5161544], [-46.6360922, -23.5162207], [-46.6363897, -23.5162016], [-46.6363847, -23.5161353]]]}}, {"type": "Feature", "properties": {"kind": "estande", "cat": "expositor", "code": "F40", "name": "Autêntica Grupo"}, "geometry": {"type": "Polygon", "coordinates": [[[-46.6360871, -23.5161544], [-46.6359941, -23.5161604], [-46.6359992, -23.5162267], [-46.6360922, -23.5162207], [-46.6360871, -23.5161544]]]}}, {"type": "Feature", "properties": {"kind": "quadra", "id": "GF-3"}, "geometry": {"type": "Polygon", "coordinates": [[[-46.6363847, -23.5161353], [-46.6359941, -23.5161604], [-46.6359992, -23.5162267], [-46.6363897, -23.5162016], [-46.6363847, -23.5161353]]]}}, {"type": "Feature", "properties": {"kind": "estande", "cat": "expositor", "code": "F30", "name": "Ciranda Cultural"}, "geometry": {"type": "Polygon", "coordinates": [[[-46.6359453, -23.5161635], [-46.6356843, -23.5161803], [-46.6356893, -23.5162466], [-46.6359503, -23.5162298], [-46.6359453, -23.5161635]]]}}, {"type": "Feature", "properties": {"kind": "quadra", "id": "GF-4"}, "geometry": {"type": "Polygon", "coordinates": [[[-46.6359453, -23.5161635], [-46.6356843, -23.5161803], [-46.6356893, -23.5162466], [-46.6359503, -23.5162298], [-46.6359453, -23.5161635]]]}}, {"type": "Feature", "properties": {"kind": "estande", "cat": "expositor", "code": "F20", "name": "Editora Sei"}, "geometry": {"type": "Polygon", "coordinates": [[[-46.6356354, -23.5161834], [-46.6355048, -23.5161918], [-46.6355099, -23.5162581], [-46.6356405, -23.5162497], [-46.6356354, -23.5161834]]]}}, {"type": "Feature", "properties": {"kind": "estande", "cat": "expositor", "code": "F28", "name": "Global Editora"}, "geometry": {"type": "Polygon", "coordinates": [[[-46.6355048, -23.5161918], [-46.6353994, -23.5161986], [-46.6354044, -23.5162649], [-46.6355099, -23.5162581], [-46.6355048, -23.5161918]]]}}, {"type": "Feature", "properties": {"kind": "quadra", "id": "GF-5"}, "geometry": {"type": "Polygon", "coordinates": [[[-46.6356354, -23.5161834], [-46.6353994, -23.5161986], [-46.6354044, -23.5162649], [-46.6356405, -23.5162497], [-46.6356354, -23.5161834]]]}}, {"type": "Feature", "properties": {"kind": "estande", "cat": "expositor", "code": "F18", "name": "Grupo Editorial Portal"}, "geometry": {"type": "Polygon", "coordinates": [[[-46.6353505, -23.5162017], [-46.6352761, -23.5162065], [-46.6352812, -23.5162728], [-46.6353556, -23.516268], [-46.6353505, -23.5162017]]]}}, {"type": "Feature", "properties": {"kind": "estande", "cat": "expositor", "code": "G15", "name": "Editora Cras"}, "geometry": {"type": "Polygon", "coordinates": [[[-46.6352761, -23.5162065], [-46.6352382, -23.5162089], [-46.6352408, -23.5162421], [-46.6352787, -23.5162397], [-46.6352761, -23.5162065]]]}}, {"type": "Feature", "properties": {"kind": "estande", "cat": "expositor", "code": "F14", "name": "Editora Calíope"}, "geometry": {"type": "Polygon", "coordinates": [[[-46.6352787, -23.5162397], [-46.6352408, -23.5162421], [-46.6352433, -23.5162753], [-46.6352812, -23.5162728], [-46.6352787, -23.5162397]]]}}, {"type": "Feature", "properties": {"kind": "estande", "cat": "expositor", "code": "G11", "name": "Novos Autores Do Brasil"}, "geometry": {"type": "Polygon", "coordinates": [[[-46.6352382, -23.5162089], [-46.6351638, -23.5162137], [-46.6351663, -23.5162469], [-46.6352408, -23.5162421], [-46.6352382, -23.5162089]]]}}, {"type": "Feature", "properties": {"kind": "estande", "cat": "expositor", "code": "F10", "name": "Livraria Paisagem"}, "geometry": {"type": "Polygon", "coordinates": [[[-46.6352408, -23.5162421], [-46.6351663, -23.5162469], [-46.6351688, -23.51628], [-46.6352433, -23.5162753], [-46.6352408, -23.5162421]]]}}, {"type": "Feature", "properties": {"kind": "quadra", "id": "GF-6"}, "geometry": {"type": "Polygon", "coordinates": [[[-46.6353505, -23.5162017], [-46.6351638, -23.5162137], [-46.6351688, -23.51628], [-46.6353556, -23.516268], [-46.6353505, -23.5162017]]]}}, {"type": "Feature", "properties": {"kind": "rua", "name": "RUA F"}, "geometry": {"type": "Polygon", "coordinates": [[[-46.6372074, -23.5161607], [-46.6356092, -23.5162634], [-46.6356121, -23.5163011], [-46.6372103, -23.5161984], [-46.6372074, -23.5161607]]]}}, {"type": "Feature", "properties": {"kind": "estande", "cat": "expositor", "code": "E88", "name": "Taverna Do Rei"}, "geometry": {"type": "Polygon", "coordinates": [[[-46.6372112, -23.51621], [-46.6370766, -23.5162187], [-46.6370817, -23.516285], [-46.6372163, -23.5162763], [-46.6372112, -23.51621]]]}}, {"type": "Feature", "properties": {"kind": "estande", "cat": "expositor", "code": "E82", "name": "Mundo Dos Colecionáveis"}, "geometry": {"type": "Polygon", "coordinates": [[[-46.6370766, -23.5162187], [-46.6370006, -23.5162236], [-46.6370057, -23.5162899], [-46.6370817, -23.516285], [-46.6370766, -23.5162187]]]}}, {"type": "Feature", "properties": {"kind": "estande", "cat": "expositor", "code": "E80", "name": "Malé Editora"}, "geometry": {"type": "Polygon", "coordinates": [[[-46.6370006, -23.5162236], [-46.6369707, -23.5162255], [-46.6369758, -23.5162918], [-46.6370057, -23.5162899], [-46.6370006, -23.5162236]]]}}, {"type": "Feature", "properties": {"kind": "estande", "cat": "expositor", "code": "E70", "name": "Globo Livros"}, "geometry": {"type": "Polygon", "coordinates": [[[-46.6369707, -23.5162255], [-46.6367448, -23.51624], [-46.6367499, -23.5163063], [-46.6369758, -23.5162918], [-46.6369707, -23.5162255]]]}}, {"type": "Feature", "properties": {"kind": "quadra", "id": "FE-1"}, "geometry": {"type": "Polygon", "coordinates": [[[-46.6372112, -23.51621], [-46.6367448, -23.51624], [-46.6367499, -23.5163063], [-46.6372163, -23.5162763], [-46.6372112, -23.51621]]]}}, {"type": "Feature", "properties": {"kind": "estande", "cat": "expositor", "code": "E60", "name": "Companhia Das Letras"}, "geometry": {"type": "Polygon", "coordinates": [[[-46.636696, -23.5162431], [-46.6364433, -23.5162594], [-46.6364484, -23.5163257], [-46.636701, -23.5163094], [-46.636696, -23.5162431]]]}}, {"type": "Feature", "properties": {"kind": "quadra", "id": "FE-2"}, "geometry": {"type": "Polygon", "coordinates": [[[-46.636696, -23.5162431], [-46.6364433, -23.5162594], [-46.6364484, -23.5163257], [-46.636701, -23.5163094], [-46.636696, -23.5162431]]]}}, {"type": "Feature", "properties": {"kind": "estande", "cat": "expositor", "code": "E30", "name": "Intrínseca"}, "geometry": {"type": "Polygon", "coordinates": [[[-46.6363945, -23.5162625], [-46.6361335, -23.5162793], [-46.6361385, -23.5163456], [-46.6363996, -23.5163288], [-46.6363945, -23.5162625]]]}}, {"type": "Feature", "properties": {"kind": "quadra", "id": "FE-3"}, "geometry": {"type": "Polygon", "coordinates": [[[-46.6363945, -23.5162625], [-46.6361335, -23.5162793], [-46.6361385, -23.5163456], [-46.6363996, -23.5163288], [-46.6363945, -23.5162625]]]}}, {"type": "Feature", "properties": {"kind": "estande", "cat": "expositor", "code": "E20", "name": "Pé Da Letra Editora"}, "geometry": {"type": "Polygon", "coordinates": [[[-46.6360846, -23.5162824], [-46.6358486, -23.5162976], [-46.6358536, -23.5163639], [-46.6360897, -23.5163487], [-46.6360846, -23.5162824]]]}}, {"type": "Feature", "properties": {"kind": "quadra", "id": "FE-4"}, "geometry": {"type": "Polygon", "coordinates": [[[-46.6360846, -23.5162824], [-46.6358486, -23.5162976], [-46.6358536, -23.5163639], [-46.6360897, -23.5163487], [-46.6360846, -23.5162824]]]}}, {"type": "Feature", "properties": {"kind": "estande", "cat": "expositor", "code": "E18", "name": "Qualis Editora"}, "geometry": {"type": "Polygon", "coordinates": [[[-46.6357997, -23.5163007], [-46.635665, -23.5163094], [-46.6356701, -23.5163757], [-46.6358048, -23.516367], [-46.6357997, -23.5163007]]]}}, {"type": "Feature", "properties": {"kind": "estande", "cat": "expositor", "code": "F11", "name": "Fraternidade De Escritores"}, "geometry": {"type": "Polygon", "coordinates": [[[-46.635665, -23.5163094], [-46.635613, -23.5163127], [-46.6356155, -23.5163459], [-46.6356676, -23.5163425], [-46.635665, -23.5163094]]]}}, {"type": "Feature", "properties": {"kind": "estande", "cat": "expositor", "code": "E10", "name": "Espaço Leia Mais"}, "geometry": {"type": "Polygon", "coordinates": [[[-46.6356676, -23.5163425], [-46.6356155, -23.5163459], [-46.635618, -23.516379], [-46.6356701, -23.5163757], [-46.6356676, -23.5163425]]]}}, {"type": "Feature", "properties": {"kind": "quadra", "id": "FE-5"}, "geometry": {"type": "Polygon", "coordinates": [[[-46.6357997, -23.5163007], [-46.635613, -23.5163127], [-46.635618, -23.516379], [-46.6358048, -23.516367], [-46.6357997, -23.5163007]]]}}, {"type": "Feature", "properties": {"kind": "rua", "name": "RUA E"}, "geometry": {"type": "Polygon", "coordinates": [[[-46.6372172, -23.516288], [-46.6352709, -23.5164131], [-46.6352738, -23.5164507], [-46.63722, -23.5163256], [-46.6372172, -23.516288]]]}}, {"type": "Feature", "properties": {"kind": "estande", "cat": "expositor", "code": "D88", "name": "Culturama Editora"}, "geometry": {"type": "Polygon", "coordinates": [[[-46.6372209, -23.5163373], [-46.6371302, -23.5163431], [-46.6371353, -23.5164094], [-46.637226, -23.5164036], [-46.6372209, -23.5163373]]]}}, {"type": "Feature", "properties": {"kind": "estande", "cat": "expositor", "code": "D80", "name": "Senac"}, "geometry": {"type": "Polygon", "coordinates": [[[-46.6371302, -23.5163431], [-46.6369614, -23.516354], [-46.6369664, -23.5164203], [-46.6371353, -23.5164094], [-46.6371302, -23.5163431]]]}}, {"type": "Feature", "properties": {"kind": "estande", "cat": "expositor", "code": "D70", "name": "Edições Sesc"}, "geometry": {"type": "Polygon", "coordinates": [[[-46.6369614, -23.516354], [-46.6367546, -23.5163672], [-46.6367596, -23.5164336], [-46.6369664, -23.5164203], [-46.6369614, -23.516354]]]}}, {"type": "Feature", "properties": {"kind": "quadra", "id": "ED-1"}, "geometry": {"type": "Polygon", "coordinates": [[[-46.6372209, -23.5163373], [-46.6367546, -23.5163672], [-46.6367596, -23.5164336], [-46.637226, -23.5164036], [-46.6372209, -23.5163373]]]}}, {"type": "Feature", "properties": {"kind": "estande", "cat": "expositor", "code": "D60", "name": "Companhia Das Letras"}, "geometry": {"type": "Polygon", "coordinates": [[[-46.6367057, -23.5163704], [-46.6364531, -23.5163866], [-46.6364581, -23.5164529], [-46.6367108, -23.5164367], [-46.6367057, -23.5163704]]]}}, {"type": "Feature", "properties": {"kind": "quadra", "id": "ED-2"}, "geometry": {"type": "Polygon", "coordinates": [[[-46.6367057, -23.5163704], [-46.6364531, -23.5163866], [-46.6364581, -23.5164529], [-46.6367108, -23.5164367], [-46.6367057, -23.5163704]]]}}, {"type": "Feature", "properties": {"kind": "estande", "cat": "expositor", "code": "D58", "name": "Harpercollins"}, "geometry": {"type": "Polygon", "coordinates": [[[-46.6364042, -23.5163898], [-46.6360678, -23.5164114], [-46.6360729, -23.5164777], [-46.6364093, -23.5164561], [-46.6364042, -23.5163898]]]}}, {"type": "Feature", "properties": {"kind": "estande", "cat": "expositor", "code": "D40", "name": "Todavia"}, "geometry": {"type": "Polygon", "coordinates": [[[-46.6360678, -23.5164114], [-46.6360138, -23.5164148], [-46.6360189, -23.5164812], [-46.6360729, -23.5164777], [-46.6360678, -23.5164114]]]}}, {"type": "Feature", "properties": {"kind": "quadra", "id": "ED-3"}, "geometry": {"type": "Polygon", "coordinates": [[[-46.6364042, -23.5163898], [-46.6360138, -23.5164148], [-46.6360189, -23.5164812], [-46.6364093, -23.5164561], [-46.6364042, -23.5163898]]]}}, {"type": "Feature", "properties": {"kind": "estande", "cat": "expositor", "code": "D30", "name": "Sextante E Arqueiro"}, "geometry": {"type": "Polygon", "coordinates": [[[-46.6359649, -23.516418], [-46.6357039, -23.5164348], [-46.635709, -23.5165011], [-46.63597, -23.5164843], [-46.6359649, -23.516418]]]}}, {"type": "Feature", "properties": {"kind": "quadra", "id": "ED-4"}, "geometry": {"type": "Polygon", "coordinates": [[[-46.6359649, -23.516418], [-46.6357039, -23.5164348], [-46.635709, -23.5165011], [-46.63597, -23.5164843], [-46.6359649, -23.516418]]]}}, {"type": "Feature", "properties": {"kind": "estande", "cat": "patrocinador", "code": "D20", "name": "Chambril"}, "geometry": {"type": "Polygon", "coordinates": [[[-46.635655, -23.5164379], [-46.6355827, -23.5164426], [-46.6355878, -23.5165089], [-46.6356601, -23.5165042], [-46.635655, -23.5164379]]]}}, {"type": "Feature", "properties": {"kind": "estande", "cat": "expositor", "code": "E21", "name": "Editora Boc"}, "geometry": {"type": "Polygon", "coordinates": [[[-46.6355827, -23.5164426], [-46.6355103, -23.5164472], [-46.6355128, -23.5164804], [-46.6355852, -23.5164757], [-46.6355827, -23.5164426]]]}}, {"type": "Feature", "properties": {"kind": "quadra", "id": "ED-5"}, "geometry": {"type": "Polygon", "coordinates": [[[-46.635655, -23.5164379], [-46.6355103, -23.5164472], [-46.6355154, -23.5165135], [-46.6356601, -23.5165042], [-46.635655, -23.5164379]]]}}, {"type": "Feature", "properties": {"kind": "estande", "cat": "expositor", "code": "D10", "name": "Pae Editora"}, "geometry": {"type": "Polygon", "coordinates": [[[-46.6354614, -23.5164503], [-46.6352747, -23.5164623], [-46.6352797, -23.5165287], [-46.6354665, -23.5165167], [-46.6354614, -23.5164503]]]}}, {"type": "Feature", "properties": {"kind": "quadra", "id": "ED-6"}, "geometry": {"type": "Polygon", "coordinates": [[[-46.6354614, -23.5164503], [-46.6352747, -23.5164623], [-46.6352797, -23.5165287], [-46.6354665, -23.5165167], [-46.6354614, -23.5164503]]]}}, {"type": "Feature", "properties": {"kind": "rua", "name": "RUA D"}, "geometry": {"type": "Polygon", "coordinates": [[[-46.6372269, -23.5164152], [-46.6354231, -23.5165312], [-46.635426, -23.5165688], [-46.6372298, -23.5164529], [-46.6372269, -23.5164152]]]}}, {"type": "Feature", "properties": {"kind": "estande", "cat": "expositor", "code": "C90", "name": "Cinemark"}, "geometry": {"type": "Polygon", "coordinates": [[[-46.6372332, -23.5164977], [-46.6371771, -23.5165013], [-46.6371796, -23.5165344], [-46.6372357, -23.5165308], [-46.6372332, -23.5164977]]]}}, {"type": "Feature", "properties": {"kind": "quadra", "id": "DC-1"}, "geometry": {"type": "Polygon", "coordinates": [[[-46.6372306, -23.5164645], [-46.6371745, -23.5164681], [-46.6371796, -23.5165344], [-46.6372357, -23.5165308], [-46.6372306, -23.5164645]]]}}, {"type": "Feature", "properties": {"kind": "estande", "cat": "expositor", "code": "BK01", "name": "Bike Pé Da Letra"}, "geometry": {"type": "Polygon", "coordinates": [[[-46.6371257, -23.5164713], [-46.6371034, -23.5164727], [-46.6371059, -23.5165059], [-46.6371282, -23.5165044], [-46.6371257, -23.5164713]]]}}, {"type": "Feature", "properties": {"kind": "quadra", "id": "DC-2"}, "geometry": {"type": "Polygon", "coordinates": [[[-46.6371257, -23.5164713], [-46.6371034, -23.5164727], [-46.6371085, -23.516539], [-46.6371308, -23.5165376], [-46.6371257, -23.5164713]]]}}, {"type": "Feature", "properties": {"kind": "estande", "cat": "expositor", "code": "C82", "name": "Fusão Do Livro"}, "geometry": {"type": "Polygon", "coordinates": [[[-46.6370545, -23.5164758], [-46.6370083, -23.5164788], [-46.6370134, -23.5165451], [-46.6370596, -23.5165422], [-46.6370545, -23.5164758]]]}}, {"type": "Feature", "properties": {"kind": "estande", "cat": "expositor", "code": "D81", "name": "Chiado Editora"}, "geometry": {"type": "Polygon", "coordinates": [[[-46.6370083, -23.5164788], [-46.6369762, -23.5164809], [-46.6369787, -23.516514], [-46.6370108, -23.516512], [-46.6370083, -23.5164788]]]}}, {"type": "Feature", "properties": {"kind": "estande", "cat": "expositor", "code": "C80", "name": "Panini Editora"}, "geometry": {"type": "Polygon", "coordinates": [[[-46.6370108, -23.516512], [-46.6369787, -23.516514], [-46.6369812, -23.5165472], [-46.6370134, -23.5165451], [-46.6370108, -23.516512]]]}}, {"type": "Feature", "properties": {"kind": "estande", "cat": "expositor", "code": "D77", "name": "Editora Paulinas"}, "geometry": {"type": "Polygon", "coordinates": [[[-46.6369762, -23.5164809], [-46.6368878, -23.5164866], [-46.6368904, -23.5165197], [-46.6369787, -23.516514], [-46.6369762, -23.5164809]]]}}, {"type": "Feature", "properties": {"kind": "estande", "cat": "expositor", "code": "C76", "name": "Y.A. Books"}, "geometry": {"type": "Polygon", "coordinates": [[[-46.6369787, -23.516514], [-46.6368904, -23.5165197], [-46.6368929, -23.5165529], [-46.6369812, -23.5165472], [-46.6369787, -23.516514]]]}}, {"type": "Feature", "properties": {"kind": "estande", "cat": "expositor", "code": "C72", "name": "Girassol"}, "geometry": {"type": "Polygon", "coordinates": [[[-46.6368878, -23.5164866], [-46.6368119, -23.5164914], [-46.636817, -23.5165577], [-46.6368929, -23.5165529], [-46.6368878, -23.5164866]]]}}, {"type": "Feature", "properties": {"kind": "estande", "cat": "patrocinador", "code": "C70", "name": "Faber-Castell"}, "geometry": {"type": "Polygon", "coordinates": [[[-46.6368119, -23.5164914], [-46.6367748, -23.5164938], [-46.6367799, -23.5165601], [-46.636817, -23.5165577], [-46.6368119, -23.5164914]]]}}, {"type": "Feature", "properties": {"kind": "quadra", "id": "DC-3"}, "geometry": {"type": "Polygon", "coordinates": [[[-46.6370545, -23.5164758], [-46.6367748, -23.5164938], [-46.6367799, -23.5165601], [-46.6370596, -23.5165422], [-46.6370545, -23.5164758]]]}}, {"type": "Feature", "properties": {"kind": "estande", "cat": "expositor", "code": "C60", "name": "Ciranda Cultural"}, "geometry": {"type": "Polygon", "coordinates": [[[-46.636726, -23.516497], [-46.6364734, -23.5165132], [-46.6364784, -23.5165795], [-46.636731, -23.5165633], [-46.636726, -23.516497]]]}}, {"type": "Feature", "properties": {"kind": "quadra", "id": "DC-4"}, "geometry": {"type": "Polygon", "coordinates": [[[-46.636726, -23.516497], [-46.6364734, -23.5165132], [-46.6364784, -23.5165795], [-46.636731, -23.5165633], [-46.636726, -23.516497]]]}}, {"type": "Feature", "properties": {"kind": "estande", "cat": "expositor", "code": "C58", "name": "Grupo Online Editora"}, "geometry": {"type": "Polygon", "coordinates": [[[-46.6364245, -23.5165163], [-46.6361828, -23.5165319], [-46.6361879, -23.5165982], [-46.6364296, -23.5165826], [-46.6364245, -23.5165163]]]}}, {"type": "Feature", "properties": {"kind": "quadra", "id": "DC-5"}, "geometry": {"type": "Polygon", "coordinates": [[[-46.6364245, -23.5165163], [-46.6361828, -23.5165319], [-46.6361879, -23.5165982], [-46.6364296, -23.5165826], [-46.6364245, -23.5165163]]]}}, {"type": "Feature", "properties": {"kind": "estande", "cat": "expositor", "code": "C30", "name": "Distribuidora & Livraria Loyola"}, "geometry": {"type": "Polygon", "coordinates": [[[-46.6361339, -23.516535], [-46.6358729, -23.5165518], [-46.635878, -23.5166181], [-46.636139, -23.5166013], [-46.6361339, -23.516535]]]}}, {"type": "Feature", "properties": {"kind": "quadra", "id": "DC-6"}, "geometry": {"type": "Polygon", "coordinates": [[[-46.6361339, -23.516535], [-46.6358729, -23.5165518], [-46.635878, -23.5166181], [-46.636139, -23.5166013], [-46.6361339, -23.516535]]]}}, {"type": "Feature", "properties": {"kind": "estande", "cat": "expositor", "code": "C28", "name": "Drummond Livraria"}, "geometry": {"type": "Polygon", "coordinates": [[[-46.6358241, -23.5165549], [-46.6357423, -23.5165602], [-46.6357473, -23.5166265], [-46.6358291, -23.5166212], [-46.6358241, -23.5165549]]]}}, {"type": "Feature", "properties": {"kind": "estande", "cat": "expositor", "code": "C20", "name": "Faro Editorial"}, "geometry": {"type": "Polygon", "coordinates": [[[-46.6357423, -23.5165602], [-46.635588, -23.5165701], [-46.6355931, -23.5166364], [-46.6357473, -23.5166265], [-46.6357423, -23.5165602]]]}}, {"type": "Feature", "properties": {"kind": "quadra", "id": "DC-7"}, "geometry": {"type": "Polygon", "coordinates": [[[-46.6358241, -23.5165549], [-46.635588, -23.5165701], [-46.6355931, -23.5166364], [-46.6358291, -23.5166212], [-46.6358241, -23.5165549]]]}}, {"type": "Feature", "properties": {"kind": "estande", "cat": "expositor", "code": "C10", "name": "Ciranda Cultural"}, "geometry": {"type": "Polygon", "coordinates": [[[-46.6355392, -23.5165732], [-46.6354269, -23.5165804], [-46.635432, -23.5166468], [-46.6355442, -23.5166395], [-46.6355392, -23.5165732]]]}}, {"type": "Feature", "properties": {"kind": "quadra", "id": "DC-8"}, "geometry": {"type": "Polygon", "coordinates": [[[-46.6355392, -23.5165732], [-46.6354269, -23.5165804], [-46.635432, -23.5166468], [-46.6355442, -23.5166395], [-46.6355392, -23.5165732]]]}}, {"type": "Feature", "properties": {"kind": "rua", "name": "RUA C"}, "geometry": {"type": "Polygon", "coordinates": [[[-46.6372366, -23.5165425], [-46.6354119, -23.5166597], [-46.6354148, -23.5166974], [-46.6372395, -23.5165801], [-46.6372366, -23.5165425]]]}}, {"type": "Feature", "properties": {"kind": "estande", "cat": "expositor", "code": "B88", "name": "Secretaria Municipal Da Educação"}, "geometry": {"type": "Polygon", "coordinates": [[[-46.6372404, -23.5165918], [-46.6370152, -23.5166062], [-46.6370203, -23.5166726], [-46.6372454, -23.5166581], [-46.6372404, -23.5165918]]]}}, {"type": "Feature", "properties": {"kind": "estande", "cat": "expositor", "code": "C77", "name": "Baggagio"}, "geometry": {"type": "Polygon", "coordinates": [[[-46.6370152, -23.5166062], [-46.6369233, -23.5166121], [-46.6369259, -23.5166453], [-46.6370177, -23.5166394], [-46.6370152, -23.5166062]]]}}, {"type": "Feature", "properties": {"kind": "estande", "cat": "expositor", "code": "B80", "name": "Viajante Do Tempo"}, "geometry": {"type": "Polygon", "coordinates": [[[-46.6370177, -23.5166394], [-46.6369259, -23.5166453], [-46.6369284, -23.5166785], [-46.6370203, -23.5166726], [-46.6370177, -23.5166394]]]}}, {"type": "Feature", "properties": {"kind": "estande", "cat": "expositor", "code": "B78", "name": "Busca Livros"}, "geometry": {"type": "Polygon", "coordinates": [[[-46.6369259, -23.5166453], [-46.6368874, -23.5166478], [-46.6368899, -23.5166809], [-46.6369284, -23.5166785], [-46.6369259, -23.5166453]]]}}, {"type": "Feature", "properties": {"kind": "estande", "cat": "expositor", "code": "B70", "name": "Boa Nova Livros Espíritas"}, "geometry": {"type": "Polygon", "coordinates": [[[-46.6368848, -23.5166146], [-46.6367355, -23.5166242], [-46.6367406, -23.5166905], [-46.6368899, -23.5166809], [-46.6368848, -23.5166146]]]}}, {"type": "Feature", "properties": {"kind": "quadra", "id": "CB-1"}, "geometry": {"type": "Polygon", "coordinates": [[[-46.6372404, -23.5165918], [-46.6367355, -23.5166242], [-46.6367406, -23.5166905], [-46.6372454, -23.5166581], [-46.6372404, -23.5165918]]]}}, {"type": "Feature", "properties": {"kind": "estande", "cat": "expositor", "code": "B68", "name": "Mundo Gospel"}, "geometry": {"type": "Polygon", "coordinates": [[[-46.6366866, -23.5166274], [-46.6365337, -23.5166372], [-46.6365388, -23.5167035], [-46.6366917, -23.5166937], [-46.6366866, -23.5166274]]]}}, {"type": "Feature", "properties": {"kind": "estande", "cat": "expositor", "code": "B60", "name": "Editora Mostarda"}, "geometry": {"type": "Polygon", "coordinates": [[[-46.6365337, -23.5166372], [-46.636434, -23.5166436], [-46.6364391, -23.5167099], [-46.6365388, -23.5167035], [-46.6365337, -23.5166372]]]}}, {"type": "Feature", "properties": {"kind": "quadra", "id": "CB-2"}, "geometry": {"type": "Polygon", "coordinates": [[[-46.6366866, -23.5166274], [-46.636434, -23.5166436], [-46.6364391, -23.5167099], [-46.6366917, -23.5166937], [-46.6366866, -23.5166274]]]}}, {"type": "Feature", "properties": {"kind": "estande", "cat": "expositor", "code": "B40", "name": "Promolivros"}, "geometry": {"type": "Polygon", "coordinates": [[[-46.6363852, -23.5166467], [-46.6359946, -23.5166718], [-46.6359997, -23.5167381], [-46.6363902, -23.516713], [-46.6363852, -23.5166467]]]}}, {"type": "Feature", "properties": {"kind": "quadra", "id": "CB-3"}, "geometry": {"type": "Polygon", "coordinates": [[[-46.6363852, -23.5166467], [-46.6359946, -23.5166718], [-46.6359997, -23.5167381], [-46.6363902, -23.516713], [-46.6363852, -23.5166467]]]}}, {"type": "Feature", "properties": {"kind": "estande", "cat": "expositor", "code": "B38", "name": "Paulus"}, "geometry": {"type": "Polygon", "coordinates": [[[-46.6359458, -23.516675], [-46.635833, -23.5166822], [-46.6358381, -23.5167485], [-46.6359508, -23.5167413], [-46.6359458, -23.516675]]]}}, {"type": "Feature", "properties": {"kind": "estande", "cat": "patrocinador", "code": "B30", "name": "Skeelo"}, "geometry": {"type": "Polygon", "coordinates": [[[-46.635833, -23.5166822], [-46.6357006, -23.5166907], [-46.6357056, -23.516757], [-46.6358381, -23.5167485], [-46.635833, -23.5166822]]]}}, {"type": "Feature", "properties": {"kind": "quadra", "id": "CB-4"}, "geometry": {"type": "Polygon", "coordinates": [[[-46.6359458, -23.516675], [-46.6357006, -23.5166907], [-46.6357056, -23.516757], [-46.6359508, -23.5167413], [-46.6359458, -23.516675]]]}}, {"type": "Feature", "properties": {"kind": "estande", "cat": "expositor", "code": "B20", "name": "Ciranda Cultural"}, "geometry": {"type": "Polygon", "coordinates": [[[-46.6356517, -23.5166939], [-46.6354157, -23.516709], [-46.6354208, -23.5167753], [-46.6356568, -23.5167602], [-46.6356517, -23.5166939]]]}}, {"type": "Feature", "properties": {"kind": "quadra", "id": "CB-5"}, "geometry": {"type": "Polygon", "coordinates": [[[-46.6356517, -23.5166939], [-46.6354157, -23.516709], [-46.6354208, -23.5167753], [-46.6356568, -23.5167602], [-46.6356517, -23.5166939]]]}}, {"type": "Feature", "properties": {"kind": "rua", "name": "RUA B"}, "geometry": {"type": "Polygon", "coordinates": [[[-46.6372463, -23.5166697], [-46.6357291, -23.5167672], [-46.635732, -23.5168049], [-46.6372492, -23.5167074], [-46.6372463, -23.5166697]]]}}, {"type": "Feature", "properties": {"kind": "estande", "cat": "expositor", "code": "A88", "name": "Ciranda Cultural"}, "geometry": {"type": "Polygon", "coordinates": [[[-46.6372501, -23.516719], [-46.6371375, -23.5167263], [-46.6371426, -23.5167926], [-46.6372552, -23.5167853], [-46.6372501, -23.516719]]]}}, {"type": "Feature", "properties": {"kind": "estande", "cat": "expositor", "code": "A86", "name": "Toque Mágico"}, "geometry": {"type": "Polygon", "coordinates": [[[-46.6371375, -23.5167263], [-46.6370767, -23.5167302], [-46.6370818, -23.5167965], [-46.6371426, -23.5167926], [-46.6371375, -23.5167263]]]}}, {"type": "Feature", "properties": {"kind": "estande", "cat": "expositor", "code": "B81", "name": "Editora Mundo Cristão"}, "geometry": {"type": "Polygon", "coordinates": [[[-46.6370767, -23.5167302], [-46.6369852, -23.516736], [-46.6369877, -23.5167692], [-46.6370793, -23.5167633], [-46.6370767, -23.5167302]]]}}, {"type": "Feature", "properties": {"kind": "estande", "cat": "expositor", "code": "A80", "name": "Flyve"}, "geometry": {"type": "Polygon", "coordinates": [[[-46.6370793, -23.5167633], [-46.6369877, -23.5167692], [-46.6369902, -23.5168024], [-46.6370818, -23.5167965], [-46.6370793, -23.5167633]]]}}, {"type": "Feature", "properties": {"kind": "estande", "cat": "expositor", "code": "B79", "name": "Uiclap"}, "geometry": {"type": "Polygon", "coordinates": [[[-46.6369852, -23.516736], [-46.6369113, -23.5167408], [-46.6369138, -23.5167739], [-46.6369877, -23.5167692], [-46.6369852, -23.516736]]]}}, {"type": "Feature", "properties": {"kind": "estande", "cat": "expositor", "code": "A78", "name": "Appris"}, "geometry": {"type": "Polygon", "coordinates": [[[-46.6369877, -23.5167692], [-46.6369138, -23.5167739], [-46.6369163, -23.5168071], [-46.6369902, -23.5168024], [-46.6369877, -23.5167692]]]}}, {"type": "Feature", "properties": {"kind": "estande", "cat": "expositor", "code": "A76", "name": "Grupo Editorial Coerência"}, "geometry": {"type": "Polygon", "coordinates": [[[-46.6369113, -23.5167408], [-46.6368738, -23.5167432], [-46.6368789, -23.5168095], [-46.6369163, -23.5168071], [-46.6369113, -23.5167408]]]}}, {"type": "Feature", "properties": {"kind": "estande", "cat": "expositor", "code": "A70", "name": "Cooperbook"}, "geometry": {"type": "Polygon", "coordinates": [[[-46.6368738, -23.5167432], [-46.6367837, -23.516749], [-46.6367888, -23.5168153], [-46.6368789, -23.5168095], [-46.6368738, -23.5167432]]]}}, {"type": "Feature", "properties": {"kind": "quadra", "id": "BA-1"}, "geometry": {"type": "Polygon", "coordinates": [[[-46.6372501, -23.516719], [-46.6367837, -23.516749], [-46.6367888, -23.5168153], [-46.6372552, -23.5167853], [-46.6372501, -23.516719]]]}}, {"type": "Feature", "properties": {"kind": "estande", "cat": "expositor", "code": "A68", "name": "Reino Dos Brinquedos"}, "geometry": {"type": "Polygon", "coordinates": [[[-46.6367349, -23.5167521], [-46.6366443, -23.5167579], [-46.6366494, -23.5168243], [-46.6367399, -23.5168184], [-46.6367349, -23.5167521]]]}}, {"type": "Feature", "properties": {"kind": "estande", "cat": "expositor", "code": "A66", "name": "Turma Do Cabeça Oca"}, "geometry": {"type": "Polygon", "coordinates": [[[-46.6366468, -23.5167911], [-46.6365989, -23.5167942], [-46.6366015, -23.5168273], [-46.6366494, -23.5168243], [-46.6366468, -23.5167911]]]}}, {"type": "Feature", "properties": {"kind": "estande", "cat": "expositor", "code": "A60", "name": "Grupo Novo Século"}, "geometry": {"type": "Polygon", "coordinates": [[[-46.6365964, -23.516761], [-46.6364823, -23.5167684], [-46.6364873, -23.5168347], [-46.6366015, -23.5168273], [-46.6365964, -23.516761]]]}}, {"type": "Feature", "properties": {"kind": "quadra", "id": "BA-2"}, "geometry": {"type": "Polygon", "coordinates": [[[-46.6367349, -23.5167521], [-46.6364823, -23.5167684], [-46.6364873, -23.5168347], [-46.6367399, -23.5168184], [-46.6367349, -23.5167521]]]}}, {"type": "Feature", "properties": {"kind": "estande", "cat": "expositor", "code": "A58", "name": "Amazon"}, "geometry": {"type": "Polygon", "coordinates": [[[-46.6364334, -23.5167715], [-46.6362814, -23.5167813], [-46.6362865, -23.5168476], [-46.6364385, -23.5168378], [-46.6364334, -23.5167715]]]}}, {"type": "Feature", "properties": {"kind": "estande", "cat": "expositor", "code": "A50", "name": "Editora Melhoramentos"}, "geometry": {"type": "Polygon", "coordinates": [[[-46.6362814, -23.5167813], [-46.6361917, -23.516787], [-46.6361968, -23.5168533], [-46.6362865, -23.5168476], [-46.6362814, -23.5167813]]]}}, {"type": "Feature", "properties": {"kind": "estande", "cat": "expositor", "code": "A40", "name": "Mundo Gospel"}, "geometry": {"type": "Polygon", "coordinates": [[[-46.6361917, -23.516787], [-46.6360428, -23.5167966], [-46.6360478, -23.5168629], [-46.6361968, -23.5168533], [-46.6361917, -23.516787]]]}}, {"type": "Feature", "properties": {"kind": "quadra", "id": "BA-3"}, "geometry": {"type": "Polygon", "coordinates": [[[-46.6364334, -23.5167715], [-46.6360428, -23.5167966], [-46.6360478, -23.5168629], [-46.6364385, -23.5168378], [-46.6364334, -23.5167715]]]}}, {"type": "Feature", "properties": {"kind": "estande", "cat": "expositor", "code": "A30", "name": "Ciranda Cultural"}, "geometry": {"type": "Polygon", "coordinates": [[[-46.6359939, -23.5167997], [-46.6357329, -23.5168165], [-46.6357379, -23.5168828], [-46.635999, -23.5168661], [-46.6359939, -23.5167997]]]}}, {"type": "Feature", "properties": {"kind": "quadra", "id": "BA-4"}, "geometry": {"type": "Polygon", "coordinates": [[[-46.6359939, -23.5167997], [-46.6357329, -23.5168165], [-46.6357379, -23.5168828], [-46.635999, -23.5168661], [-46.6359939, -23.5167997]]]}}, {"type": "Feature", "properties": {"kind": "rua", "name": "RUA A"}, "geometry": {"type": "Polygon", "coordinates": [[[-46.6372561, -23.516797], [-46.6366429, -23.5168364], [-46.6366458, -23.516874], [-46.6372589, -23.5168346], [-46.6372561, -23.516797]]]}}, {"type": "Feature", "properties": {"kind": "estande", "cat": "expositor", "code": "A89", "name": "Ciranda Cultural"}, "geometry": {"type": "Polygon", "coordinates": [[[-46.6372598, -23.5168454], [-46.6372032, -23.516849], [-46.6372082, -23.5169153], [-46.6372648, -23.5169117], [-46.6372598, -23.5168454]]]}}, {"type": "Feature", "properties": {"kind": "quadra", "id": "Asul-1"}, "geometry": {"type": "Polygon", "coordinates": [[[-46.6372598, -23.5168454], [-46.6372032, -23.516849], [-46.6372082, -23.5169153], [-46.6372648, -23.5169117], [-46.6372598, -23.5168454]]]}}, {"type": "Feature", "properties": {"kind": "estande", "cat": "expositor", "code": "A85", "name": "Editora Dcl"}, "geometry": {"type": "Polygon", "coordinates": [[[-46.6371543, -23.5168521], [-46.6371037, -23.5168554], [-46.6371088, -23.5169217], [-46.6371594, -23.5169185], [-46.6371543, -23.5168521]]]}}, {"type": "Feature", "properties": {"kind": "estande", "cat": "expositor", "code": "A81", "name": "Grupo Online Editora"}, "geometry": {"type": "Polygon", "coordinates": [[[-46.6371037, -23.5168554], [-46.6370386, -23.5168596], [-46.6370437, -23.5169259], [-46.6371088, -23.5169217], [-46.6371037, -23.5168554]]]}}, {"type": "Feature", "properties": {"kind": "quadra", "id": "Asul-2"}, "geometry": {"type": "Polygon", "coordinates": [[[-46.6371543, -23.5168521], [-46.6370386, -23.5168596], [-46.6370437, -23.5169259], [-46.6371594, -23.5169185], [-46.6371543, -23.5168521]]]}}, {"type": "Feature", "properties": {"kind": "estande", "cat": "expositor", "code": "A79", "name": "Sharjah Book Authority"}, "geometry": {"type": "Polygon", "coordinates": [[[-46.6369897, -23.5168627], [-46.6369331, -23.5168664], [-46.6369382, -23.5169327], [-46.6369948, -23.516929], [-46.6369897, -23.5168627]]]}}, {"type": "Feature", "properties": {"kind": "quadra", "id": "Asul-3"}, "geometry": {"type": "Polygon", "coordinates": [[[-46.6369897, -23.5168627], [-46.6369331, -23.5168664], [-46.6369382, -23.5169327], [-46.6369948, -23.516929], [-46.6369897, -23.5168627]]]}}, {"type": "Feature", "properties": {"kind": "estande", "cat": "patrocinador", "code": "A55", "name": "Itaú"}, "geometry": {"type": "Polygon", "coordinates": [[[-46.6368843, -23.5168695], [-46.6367988, -23.516875], [-46.6368038, -23.5169413], [-46.6368894, -23.5169358], [-46.6368843, -23.5168695]]]}}, {"type": "Feature", "properties": {"kind": "estande", "cat": "expositor", "code": "A47", "name": "Pé Da Letra"}, "geometry": {"type": "Polygon", "coordinates": [[[-46.6367988, -23.516875], [-46.6367558, -23.5168778], [-46.6367608, -23.5169441], [-46.6368038, -23.5169413], [-46.6367988, -23.516875]]]}}, {"type": "Feature", "properties": {"kind": "quadra", "id": "Asul-4"}, "geometry": {"type": "Polygon", "coordinates": [[[-46.6368843, -23.5168695], [-46.6367558, -23.5168778], [-46.6367608, -23.5169441], [-46.6368894, -23.5169358], [-46.6368843, -23.5168695]]]}}, {"type": "Feature", "properties": {"kind": "estande", "cat": "expositor", "code": "A41", "name": "Promolivros"}, "geometry": {"type": "Polygon", "coordinates": [[[-46.6367069, -23.5168809], [-46.6366466, -23.5168848], [-46.6366517, -23.5169511], [-46.636712, -23.5169472], [-46.6367069, -23.5168809]]]}}, {"type": "Feature", "properties": {"kind": "quadra", "id": "Asul-5"}, "geometry": {"type": "Polygon", "coordinates": [[[-46.6367069, -23.5168809], [-46.6366466, -23.5168848], [-46.6366517, -23.5169511], [-46.636712, -23.5169472], [-46.6367069, -23.5168809]]]}}]}