{
 "type": "FeatureCollection",
 "properties": {
  "source": "OpenStreetMap (ODbL)"
 },
 "features": [
  {
   "type": "Feature",
   "properties": {
    "osm": "way 1298216400",
    "building": "roof"
   },
   "geometry": {
    "type": "Polygon",
    "coordinates": [
     [
      [
       -46.6386533,
       -23.515982
      ],
      [
       -46.6386526,
       -23.5159731
      ],
      [
       -46.6386996,
       -23.5159701
      ],
      [
       -46.6387079,
       -23.5160791
      ],
      [
       -46.6379708,
       -23.5161265
      ],
      [
       -46.6379702,
       -23.5161185
      ],
      [
       -46.6379169,
       -23.5161219
      ],
      [
       -46.6379136,
       -23.5160783
      ],
      [
       -46.6378942,
       -23.5158251
      ],
      [
       -46.6379397,
       -23.5158222
      ],
      [
       -46.6379554,
       -23.5160268
      ],
      [
       -46.6386533,
       -23.515982
      ]
     ]
    ]
   }
  },
  {
   "type": "Feature",
   "properties": {
    "osm": "way 1298216404",
    "building": "roof"
   },
   "geometry": {
    "type": "Polygon",
    "coordinates": [
     [
      [
       -46.6372162,
       -23.5155046
      ],
      [
       -46.6372055,
       -23.5153654
      ],
      [
       -46.6371964,
       -23.5152456
      ],
      [
       -46.6368766,
       -23.5152661
      ],
      [
       -46.6346682,
       -23.515408
      ],
      [
       -46.634688,
       -23.515667
      ],
      [
       -46.6347654,
       -23.5156621
      ],
      [
       -46.6372162,
       -23.5155046
      ]
     ]
    ]
   }
  },
  {
   "type": "Feature",
   "properties": {
    "osm": "way 1448306546",
    "building": "roof"
   },
   "geometry": {
    "type": "Polygon",
    "coordinates": [
     [
      [
       -46.6378754,
       -23.5153224
      ],
      [
       -46.6377954,
       -23.5153275
      ],
      [
       -46.6372055,
       -23.5153654
      ],
      [
       -46.6372162,
       -23.5155046
      ],
      [
       -46.6378666,
       -23.5154629
      ],
      [
       -46.637886,
       -23.5154616
      ],
      [
       -46.6378754,
       -23.5153224
      ]
     ]
    ]
   }
  }
 ]
}