{
 "type": "FeatureCollection",
 "features": [
  {
   "type": "Feature",
   "properties": {
    "name": "Pavilh\u00e3o de Exposi\u00e7\u00f5es do Distrito Anhembi",
    "source": "OpenStreetMap way 203621978 (ODbL)"
   },
   "geometry": {
    "type": "Polygon",
    "coordinates": [
     [
      [
       -46.6372162,
       -23.5155046
      ],
      [
       -46.6347654,
       -23.5156621
      ],
      [
       -46.6349189,
       -23.5176723
      ],
      [
       -46.6380735,
       -23.5174697
      ],
      [
       -46.6379708,
       -23.5161265
      ],
      [
       -46.6379702,
       -23.5161185
      ],
      [
       -46.6379169,
       -23.5161219
      ],
      [
       -46.6379136,
       -23.5160783
      ],
      [
       -46.6378942,
       -23.5158251
      ],
      [
       -46.6378666,
       -23.5154629
      ],
      [
       -46.6372162,
       -23.5155046
      ]
     ]
    ]
   }
  }
 ]
}